[
    {
        "Altitude(m)": 624790.7724855418,
        "Argument of Periapsis(deg)": 0.0,
        "Eccentricity": 0.0,
        "Inclination(deg)": 60.0,
        "Latitude(deg)": -59.14704714677104,
        "Longitude(deg)": 71.03469467486964,
        "Mean Anomaly(deg)": -81.8182,
        "RAAN(deg)": 245.0,
        "Satellite Name": "Test1 1095",
        "Satellite Number": 1095,
        "Semi-Major Axis(m)": 6980739.136638005,
        "Time(s)": 0
    },
    {
        "Altitude(m)": 624737.4271514721,
        "Argument of Periapsis(deg)": 0.00010418945913296404,
        "Eccentricity": 0.0,
        "Inclination(deg)": 60.0,
        "Latitude(deg)": -58.99450126303193,
        "Longitude(deg)": 72.1541939414864,
        "Mean Anomaly(deg)": -81.19809385453816,
        "RAAN(deg)": 244.99957995086027,
        "Satellite Name": "Test1 1095",
        "Satellite Number": 1095,
        "Semi-Major Axis(m)": 6980739.136638005,
        "Time(s)": 10
    }
]